INTELSAT 902 (IS-902)   
1 26900U 01039A   26195.54914037 -.00000295  00000+0  00000+0 0  9991
2 26900   6.1834  71.4466 0004218  40.6431 327.9041  1.00272956 90975
INTELSAT 904 (IS-904)   
1 27380U 02007A   26195.82004184 -.00000239  00000+0  00000+0 0  9992
2 27380   6.9868  68.8486 0005361  25.3691 102.2009  1.00270714 52047
DIRECTV 5 (TEMPO 1)     
1 27426U 02023A   26195.60858677 -.00000069  00000+0  00000+0 0  9992
2 27426   4.9456  74.9668 0003057  45.5469 280.9303  1.00271217 88393
INTELSAT 905 (IS-905)   
1 27438U 02027A   26195.74571968  .00000081  00000+0  00000+0 0  9992
2 27438   6.8205  69.4642 0003462  47.4913 306.8961  1.00271808 51636
GALAXY 3C (G-3C)        
1 27445U 02030A   26195.82544432 -.00000164  00000+0  00000+0 0  9992
2 27445   3.8030  77.6158 0001519  34.2608  23.1303  1.00270689 46770
INTELSAT 906 (IS-906)   
1 27513U 02041A   26195.87530240  .00000000  00000+0  00000+0 0  9995
2 27513   5.8702  72.5789 0003835  24.5091 214.9003  1.00273084 87302
GALAXY 13 (HORIZONS-1)  
1 27954U 03044A   26195.74320632  .00000123  00000+0  00000+0 0  9992
2 27954   1.4881  83.5116 0002145  29.0784 297.5470  1.00271082 46844
INTELSAT 10-02          
1 28358U 04022A   26195.55876043 -.00000019  00000+0  00000+0 0  9994
2 28358   0.0546 250.7792 0000431 353.4325 248.3532  1.00271097 80831
DIRECTV 8               
1 28659U 05019A   26195.74901302  .00000000  00000+0  00000+0 0  9992
2 28659   0.0191  50.5543 0003093  76.0294 316.6283  1.00270594 77346
GALAXY 28 (G-28)        
1 28702U 05022A   26195.76747310 -.00000211  00000+0  00000+0 0  9999
2 28702   3.3672  78.5918 0002486  26.4376  76.7858  1.00272141 52251
GALAXY 16 (G-16)        
1 29236U 06023A   26195.82449097 -.00000135  00000+0  00000+0 0  9997
2 29236   0.0121  96.9841 0002529  29.1770   4.3321  1.00271035 73258
DIRECTV 9S              
1 29494U 06043A   26195.82414432 -.00000124  00000+0  00000+0 0  9998
2 29494   2.4899  80.5684 0005004  34.0926  13.5053  1.00270984 51662
GALAXY 17 (G-17)        
1 31307U 07016B   26195.82735100 -.00000217  00000+0  00000+0 0  9996
2 31307   3.0393  79.5502 0003538  33.8307  32.1235  1.00271879 70081
INTELSAT 11 (IS-11)     
1 32253U 07044B   26195.77380730 -.00000158  00000+0  00000+0 0  9991
2 32253   3.6351  78.3340 0004175 100.6769  36.6369  0.99052090 68726
HORIZONS-2              
1 32388U 07063B   26195.75828640 -.00000264  00000+0  00000+0 0  9994
2 32388   2.6710  80.2866 0003532  20.0196  31.4771  1.00269326 68098
DIRECTV 11              
1 32729U 08013A   26195.53943366 -.00000133  00000+0  00000+0 0  9993
2 32729   0.0105 271.2272 0000085 291.1536 185.0288  1.00272107 45869
GALAXY 18 (G-18)        
1 32951U 08024A   26195.74857970  .00000017  00000+0  00000+0 0  9990
2 32951   0.0169  50.3856 0002840  76.7693 311.9317  1.00271299 46126
GALAXY 19 (G-19)        
1 33376U 08045A   26195.82492432 -.00000148  00000+0  00000+0 0  9998
2 33376   0.0585 248.4919 0002325 238.0587   6.1091  1.00272717 65188
FM-5                    
1 35493U 09034A   26194.90035760 -.00000205  00000+0  00000+0 0  9998
2 35493   0.0457 259.5714 0000757  86.9227 183.2440  1.00271245 46912
INTELSAT 14 (IS-14)     
1 36097U 09064A   26195.76400644 -.00000282  00000+0  00000+0 0  9999
2 36097   0.0211 305.3121 0002183 177.7556  39.5898  1.00268717 60884
INTELSAT 15 (IS-15)     
1 36106U 09067A   26195.83933828 -.00000193  00000+0  00000+0 0  9997
2 36106   0.0149 327.1032 0002215 152.0148 200.8735  1.00268678 41504
DIRECTV 12              
1 36131U 09075A   26195.60997345 -.00000111  00000+0  00000+0 0  9993
2 36131   0.0060 146.6311 0000343  81.1342 181.5618  1.00271908 46821
INTELSAT 16 (IS-16)     
1 36397U 10006A   26195.81492264 -.00000253  00000+0  00000+0 0  9993
2 36397   0.0093  43.7248 0002316  94.0748  12.0317  1.00270086 59938
XM-5                    
1 37185U 10053A   26194.27598828 -.00000026  00000+0  00000+0 0  9991
2 37185   0.0648 265.0318 0001728 322.3275  47.9546  1.00270903 57741
INTELSAT 17 (IS-17)     
1 37238U 10065B   26195.87702417  .00000000  00000+0  00000+0 0  9992
2 37238   0.0330  98.0463 0002809  41.2100 175.1832  1.00270774 53528
INTELSAT 28 (IS-28)     
1 37392U 11016A   26195.86920436 -.00000235  00000+0  00000+0 0  9993
2 37392   1.8755  82.2459 0003650  36.2250  95.4515  1.00275881 53564
INTELSAT 18 (IS-18)     
1 37834U 11056A   26195.80854424  .00000000  00000+0  00000+0 0  9994
2 37834   0.0191  44.2167 0001727  78.9199 280.6096  1.00269884 54088
INTELSAT 22 (IS-22)     
1 38098U 12011A   26195.78722412 -.00000067  00000+0  00000+0 0  9991
2 38098   0.0121  35.7679 0001859  87.3118 165.0599  1.00272365  7460
INTELSAT 19 (IS-19)     
1 38356U 12030A   26195.80577088 -.00000065  00000+0  00000+0 0  9997
2 38356   0.0061 346.1229 0003196 142.5973 260.0123  1.00271313 50727
INTELSAT 20 (IS-20)     
1 38740U 12043A   26195.83296402 -.00000033  00000+0  00000+0 0  9994
2 38740   0.0121  64.3453 0001206 111.7482 124.9607  1.00270888 51027
INTELSAT 21 (IS-21)     
1 38749U 12045A   26195.19052400 -.00000291  00000+0  00000+0 0  9998
2 38749   0.0563 254.8538 0001278 255.5602 152.2105  1.00263192 50796
